[{"CCSDS_OMM_VERS":"2.0","COMMENT":"GENERATED VIA SPACE-TRACK.ORG API","CREATION_DATE":"2013-08-09T01:25:13","ORIGINATOR":"18 SPCS","OBJECT_NAME":"GALILEO-FM2","OBJECT_ID":"2011-060B","CENTER_NAME":"EARTH","REF_FRAME":"TEME","TIME_SYSTEM":"UTC","MEAN_ELEMENT_THEORY":"SGP4","EPOCH":"2013-08-09T00:15:02.180159","MEAN_MOTION":"1.70474565","ECCENTRICITY":"0.00032040","INCLINATION":"54.9190","RA_OF_ASC_NODE":"111.3306","ARG_OF_PERICENTER":"282.8011","MEAN_ANOMALY":"232.3375","EPHEMERIS_TYPE":"0","CLASSIFICATION_TYPE":"U","NORAD_CAT_ID":"37847","ELEMENT_SET_NO":"999","REV_AT_EPOCH":"1120","BSTAR":"0.00000000000000","MEAN_MOTION_DOT":"-0.00000001","MEAN_MOTION_DDOT":"0.0000000000000","SEMIMAJOR_AXIS":"29600.273","PERIOD":"844.700","APOAPSIS":"23231.622","PERIAPSIS":"23212.654","OBJECT_TYPE":"PAYLOAD","RCS_SIZE":"LARGE","COUNTRY_CODE":"ESA","LAUNCH_DATE":"2011-10-21","SITE":"FRGUI","DECAY_DATE":null,"FILE":"1529169","GP_ID":"93534057","TLE_LINE0":"0 GALILEO-FM2","TLE_LINE1":"1 37847U 11060B   13221.01044190 -.00000001  00000-0  00000+0 0  9996","TLE_LINE2":"2 37847 054.9190 111.3306 0003204 282.8011 232.3375 01.70474565 11203"},{"CCSDS_OMM_VERS":"2.0","COMMENT":"GENERATED VIA SPACE-TRACK.ORG API","CREATION_DATE":"2013-08-11T17:15:23","ORIGINATOR":"18 SPCS","OBJECT_NAME":"GALILEO-FM2","OBJECT_ID":"2011-060B","CENTER_NAME":"EARTH","REF_FRAME":"TEME","TIME_SYSTEM":"UTC","MEAN_ELEMENT_THEORY":"SGP4","EPOCH":"2013-08-11T18:13:31.952639","MEAN_MOTION":"1.70474582","ECCENTRICITY":"0.00031120","INCLINATION":"54.9204","RA_OF_ASC_NODE":"111.2529","ARG_OF_PERICENTER":"281.7695","MEAN_ANOMALY":"120.4743","EPHEMERIS_TYPE":"0","CLASSIFICATION_TYPE":"U","NORAD_CAT_ID":"37847","ELEMENT_SET_NO":"999","REV_AT_EPOCH":"1125","BSTAR":"0.00000000000000","MEAN_MOTION_DOT":"0.00000001","MEAN_MOTION_DDOT":"0.0000000000000","SEMIMAJOR_AXIS":"29600.271","PERIOD":"844.700","APOAPSIS":"23231.348","PERIAPSIS":"23212.925","OBJECT_TYPE":"PAYLOAD","RCS_SIZE":"LARGE","COUNTRY_CODE":"ESA","LAUNCH_DATE":"2011-10-21","SITE":"FRGUI","DECAY_DATE":null,"FILE":"1530402","GP_ID":"93555813","TLE_LINE0":"0 GALILEO-FM2","TLE_LINE1":"1 37847U 11060B   13223.75939760  .00000001  00000-0  00000+0 0  9994","TLE_LINE2":"2 37847 054.9204 111.2529 0003112 281.7695 120.4743 01.70474582 11259"},{"CCSDS_OMM_VERS":"2.0","COMMENT":"GENERATED VIA SPACE-TRACK.ORG API","CREATION_DATE":"2013-08-14T01:48:52","ORIGINATOR":"18 SPCS","OBJECT_NAME":"GALILEO-FM2","OBJECT_ID":"2011-060B","CENTER_NAME":"EARTH","REF_FRAME":"TEME","TIME_SYSTEM":"UTC","MEAN_ELEMENT_THEORY":"SGP4","EPOCH":"2013-08-13T22:15:53.366400","MEAN_MOTION":"1.70474645","ECCENTRICITY":"0.00030550","INCLINATION":"54.9215","RA_OF_ASC_NODE":"111.1916","ARG_OF_PERICENTER":"281.5293","MEAN_ANOMALY":"11.4571","EPHEMERIS_TYPE":"0","CLASSIFICATION_TYPE":"U","NORAD_CAT_ID":"37847","ELEMENT_SET_NO":"999","REV_AT_EPOCH":"1128","BSTAR":"0.00000000000000","MEAN_MOTION_DOT":"-0.00000009","MEAN_MOTION_DDOT":"0.0000000000000","SEMIMAJOR_AXIS":"29600.264","PERIOD":"844.700","APOAPSIS":"23231.172","PERIAPSIS":"23213.086","OBJECT_TYPE":"PAYLOAD","RCS_SIZE":"LARGE","COUNTRY_CODE":"ESA","LAUNCH_DATE":"2011-10-21","SITE":"FRGUI","DECAY_DATE":null,"FILE":"1531428","GP_ID":"93573657","TLE_LINE0":"0 GALILEO-FM2","TLE_LINE1":"1 37847U 11060B   13225.92770100 -.00000009  00000-0  00000+0 0  9995","TLE_LINE2":"2 37847 054.9215 111.1916 0003055 281.5293 011.4571 01.70474645 11289"},{"CCSDS_OMM_VERS":"2.0","COMMENT":"GENERATED VIA SPACE-TRACK.ORG API","CREATION_DATE":"2013-08-16T01:03:53","ORIGINATOR":"18 SPCS","OBJECT_NAME":"GALILEO-FM2","OBJECT_ID":"2011-060B","CENTER_NAME":"EARTH","REF_FRAME":"TEME","TIME_SYSTEM":"UTC","MEAN_ELEMENT_THEORY":"SGP4","EPOCH":"2013-08-16T00:45:00.139103","MEAN_MOTION":"1.70474730","ECCENTRICITY":"0.00029840","INCLINATION":"54.9226","RA_OF_ASC_NODE":"111.1323","ARG_OF_PERICENTER":"281.5306","MEAN_ANOMALY":"222.4576","EPHEMERIS_TYPE":"0","CLASSIFICATION_TYPE":"U","NORAD_CAT_ID":"37847","ELEMENT_SET_NO":"999","REV_AT_EPOCH":"1132","BSTAR":"0.00000000000000","MEAN_MOTION_DOT":"-0.00000017","MEAN_MOTION_DDOT":"0.0000000000000","SEMIMAJOR_AXIS":"29600.254","PERIOD":"844.699","APOAPSIS":"23230.952","PERIAPSIS":"23213.286","OBJECT_TYPE":"PAYLOAD","RCS_SIZE":"LARGE","COUNTRY_CODE":"ESA","LAUNCH_DATE":"2011-10-21","SITE":"FRGUI","DECAY_DATE":null,"FILE":"1532433","GP_ID":"93590478","TLE_LINE0":"0 GALILEO-FM2","TLE_LINE1":"1 37847U 11060B   13228.03125161 -.00000017  00000-0  00000+0 0  9990","TLE_LINE2":"2 37847 054.9226 111.1323 0002984 281.5306 222.4576 01.70474730 11327"},{"CCSDS_OMM_VERS":"2.0","COMMENT":"GENERATED VIA SPACE-TRACK.ORG API","CREATION_DATE":"2013-08-18T01:31:02","ORIGINATOR":"18 SPCS","OBJECT_NAME":"GALILEO-FM2","OBJECT_ID":"2011-060B","CENTER_NAME":"EARTH","REF_FRAME":"TEME","TIME_SYSTEM":"UTC","MEAN_ELEMENT_THEORY":"SGP4","EPOCH":"2013-08-18T01:21:08.481023","MEAN_MOTION":"1.70474816","ECCENTRICITY":"0.00029070","INCLINATION":"54.9235","RA_OF_ASC_NODE":"111.0753","ARG_OF_PERICENTER":"281.7572","MEAN_ANOMALY":"25.0839","EPHEMERIS_TYPE":"0","CLASSIFICATION_TYPE":"U","NORAD_CAT_ID":"37847","ELEMENT_SET_NO":"999","REV_AT_EPOCH":"1135","BSTAR":"0.00000000000000","MEAN_MOTION_DOT":"-0.00000017","MEAN_MOTION_DDOT":"0.0000000000000","SEMIMAJOR_AXIS":"29600.244","PERIOD":"844.699","APOAPSIS":"23230.714","PERIAPSIS":"23213.504","OBJECT_TYPE":"PAYLOAD","RCS_SIZE":"LARGE","COUNTRY_CODE":"ESA","LAUNCH_DATE":"2011-10-21","SITE":"FRGUI","DECAY_DATE":null,"FILE":"1533335","GP_ID":"93606705","TLE_LINE0":"0 GALILEO-FM2","TLE_LINE1":"1 37847U 11060B   13230.05634816 -.00000017  00000-0  00000+0 0  9997","TLE_LINE2":"2 37847 054.9235 111.0753 0002907 281.7572 025.0839 01.70474816 11352"},{"CCSDS_OMM_VERS":"2.0","COMMENT":"GENERATED VIA SPACE-TRACK.ORG API","CREATION_DATE":"2013-08-20T01:44:56","ORIGINATOR":"18 SPCS","OBJECT_NAME":"GALILEO-FM2","OBJECT_ID":"2011-060B","CENTER_NAME":"EARTH","REF_FRAME":"TEME","TIME_SYSTEM":"UTC","MEAN_ELEMENT_THEORY":"SGP4","EPOCH":"2013-08-20T03:03:58.339583","MEAN_MOTION":"1.70474902","ECCENTRICITY":"0.00028360","INCLINATION":"54.9243","RA_OF_ASC_NODE":"111.0170","ARG_OF_PERICENTER":"281.7999","MEAN_ANOMALY":"216.3186","EPHEMERIS_TYPE":"0","CLASSIFICATION_TYPE":"U","NORAD_CAT_ID":"37847","ELEMENT_SET_NO":"999","REV_AT_EPOCH":"1139","BSTAR":"0.00000000000000","MEAN_MOTION_DOT":"-0.00000012","MEAN_MOTION_DDOT":"0.0000000000000","SEMIMAJOR_AXIS":"29600.234","PERIOD":"844.699","APOAPSIS":"23230.494","PERIAPSIS":"23213.704","OBJECT_TYPE":"PAYLOAD","RCS_SIZE":"LARGE","COUNTRY_CODE":"ESA","LAUNCH_DATE":"2011-10-21","SITE":"FRGUI","DECAY_DATE":null,"FILE":"1534480","GP_ID":"93622906","TLE_LINE0":"0 GALILEO-FM2","TLE_LINE1":"1 37847U 11060B   13232.12775856 -.00000012  00000-0  00000+0 0  9992","TLE_LINE2":"2 37847 054.9243 111.0170 0002836 281.7999 216.3186 01.70474902 11398"},{"CCSDS_OMM_VERS":"2.0","COMMENT":"GENERATED VIA SPACE-TRACK.ORG API","CREATION_DATE":"2013-08-22T09:26:34","ORIGINATOR":"18 SPCS","OBJECT_NAME":"GALILEO-FM2","OBJECT_ID":"2011-060B","CENTER_NAME":"EARTH","REF_FRAME":"TEME","TIME_SYSTEM":"UTC","MEAN_ELEMENT_THEORY":"SGP4","EPOCH":"2013-08-22T05:58:45.077375","MEAN_MOTION":"1.70477428","ECCENTRICITY":"0.00030370","INCLINATION":"54.9262","RA_OF_ASC_NODE":"110.9566","ARG_OF_PERICENTER":"282.7597","MEAN_ANOMALY":"77.3041","EPHEMERIS_TYPE":"0","CLASSIFICATION_TYPE":"U","NORAD_CAT_ID":"37847","ELEMENT_SET_NO":"999","REV_AT_EPOCH":"1143","BSTAR":"0.00010000000000","MEAN_MOTION_DOT":"0.00000011","MEAN_MOTION_DDOT":"0.0000000000000","SEMIMAJOR_AXIS":"29599.942","PERIOD":"844.686","APOAPSIS":"23230.796","PERIAPSIS":"23212.817","OBJECT_TYPE":"PAYLOAD","RCS_SIZE":"LARGE","COUNTRY_CODE":"ESA","LAUNCH_DATE":"2011-10-21","SITE":"FRGUI","DECAY_DATE":null,"FILE":"1535560","GP_ID":"93640389","TLE_LINE0":"0 GALILEO-FM2","TLE_LINE1":"1 37847U 11060B   13234.24913284  .00000011  00000-0  10000-3 0  9999","TLE_LINE2":"2 37847 054.9262 110.9566 0003037 282.7597 077.3041 01.70477428 11431"},{"CCSDS_OMM_VERS":"2.0","COMMENT":"GENERATED VIA SPACE-TRACK.ORG API","CREATION_DATE":"2013-08-22T18:01:59","ORIGINATOR":"18 SPCS","OBJECT_NAME":"GALILEO-FM2","OBJECT_ID":"2011-060B","CENTER_NAME":"EARTH","REF_FRAME":"TEME","TIME_SYSTEM":"UTC","MEAN_ELEMENT_THEORY":"SGP4","EPOCH":"2013-08-22T14:34:41.583071","MEAN_MOTION":"1.70474958","ECCENTRICITY":"0.00027770","INCLINATION":"54.9253","RA_OF_ASC_NODE":"110.9473","ARG_OF_PERICENTER":"282.0259","MEAN_ANOMALY":"297.9295","EPHEMERIS_TYPE":"0","CLASSIFICATION_TYPE":"U","NORAD_CAT_ID":"37847","ELEMENT_SET_NO":"999","REV_AT_EPOCH":"1143","BSTAR":"0.00000000000000","MEAN_MOTION_DOT":"-0.00000015","MEAN_MOTION_DDOT":"0.0000000000000","SEMIMAJOR_AXIS":"29600.228","PERIOD":"844.698","APOAPSIS":"23230.313","PERIAPSIS":"23213.873","OBJECT_TYPE":"PAYLOAD","RCS_SIZE":"LARGE","COUNTRY_CODE":"ESA","LAUNCH_DATE":"2011-10-21","SITE":"FRGUI","DECAY_DATE":null,"FILE":"1535828","GP_ID":"93644888","TLE_LINE0":"0 GALILEO-FM2","TLE_LINE1":"1 37847U 11060B   13234.60742573 -.00000015  00000-0  00000+0 0  9990","TLE_LINE2":"2 37847 054.9253 110.9473 0002777 282.0259 297.9295 01.70474958 11432"}]